[
  {
    "OBJECT_NAME": "2023-085AL",
    "OBJECT_ID": "2023-085AL",
    "EPOCH": "2026-06-11T21:44:05.007000",
    "MEAN_MOTION": 15.34768965,
    "ECCENTRICITY": 0.0007959,
    "INCLINATION": 97.4942,
    "RA_OF_ASC_NODE": 275.2208,
    "ARG_OF_PERICENTER": 100.2548,
    "MEAN_ANOMALY": 259.9593,
    "EPHEMERIS_TYPE": 0,
    "CLASSIFICATION_TYPE": "U",
    "NORAD_CAT_ID": 57038,
    "ELEMENT_SET_NO": 999,
    "REV_AT_EPOCH": 16594,
    "BSTAR": 0.00041686,
    "MEAN_MOTION_DOT": 0.00013992,
    "MEAN_MOTION_DDOT": 0
  }
]
