2023-085AL              
1 57038U 23085AL  26162.90561351  .00013992  00000+0  41686-3 0  9999
2 57038  97.4942 275.2208 0007959 100.2548 259.9593 15.34768965165947
